[Satellite]
VERSION=1.1
NAME=GRIFEX
NICKNAME=GRIFEX
TLE1=1 40379U 15003D   18021.10468584  .00001400  00000-0  65592-4 0  9996
TLE2=2 40379  99.1087 250.4902 0139944  10.3534 350.0522 15.13881852163848
